[{"OBJECT_NAME":"GEESAT-5 02","OBJECT_ID":"2025-201B","EPOCH":"2026-03-09T15:59:08.333088","MEAN_MOTION":14.83780369,"ECCENTRICITY":0.00086476,"INCLINATION":49.9848,"RA_OF_ASC_NODE":140.989,"ARG_OF_PERICENTER":301.1325,"MEAN_ANOMALY":58.8764,"EPHEMERIS_TYPE":0,"CLASSIFICATION_TYPE":"U","NORAD_CAT_ID":65551,"ELEMENT_SET_NO":999,"REV_AT_EPOCH":2701,"BSTAR":0.00035135822,"MEAN_MOTION_DOT":2.715e-5,"MEAN_MOTION_DDOT":0},{"OBJECT_NAME":"SL-14 R\/B","OBJECT_ID":"1994-066B","EPOCH":"2026-03-09T12:27:40.446432","MEAN_MOTION":14.80893946,"ECCENTRICITY":0.00215923,"INCLINATION":82.537,"RA_OF_ASC_NODE":90.4426,"ARG_OF_PERICENTER":230.6379,"MEAN_ANOMALY":129.2922,"EPHEMERIS_TYPE":0,"CLASSIFICATION_TYPE":"U","NORAD_CAT_ID":23318,"ELEMENT_SET_NO":999,"REV_AT_EPOCH":69359,"BSTAR":5.612059e-5,"MEAN_MOTION_DOT":4.58e-6,"MEAN_MOTION_DDOT":0}]
